{"type": "FeatureCollection", "features": [ {"type": "Feature", "properties": {"norad_id": 37834, "name": "INTELSAT 18 (IS-18)", "group": "intelsat", "lat": 0.04138263019724098, "lon": 13.077503125598135, "alt_km": 35786.145702763606, "timestamp": "2025-12-19T06:59:43.571684+00:00", "meta": {"OBJECT_NAME": "INTELSAT 18 (IS-18)", "OBJECT_ID": "2011-056A", "EPOCH": "2025-12-18T19:17:17.870784", "MEAN_MOTION": 1.0027148, "ECCENTRICITY": 0.0001621, "INCLINATION": 0.037, "RA_OF_ASC_NODE": 278.1985, "ARG_OF_PERICENTER": 4.8809, "MEAN_ANOMALY": 273.903, "EPHEMERIS_TYPE": 0, "CLASSIFICATION_TYPE": "U", "NORAD_CAT_ID": 37834, "ELEMENT_SET_NO": 999, "REV_AT_EPOCH": 5200, "BSTAR": 0, "MEAN_MOTION_DOT": 7.8e-07, "MEAN_MOTION_DDOT": 0}, "tle": {"line1": "1 37834U 11056A   25352.80367906  .00000078  00000+0  00000+0 0  9997", "line2": "2 37834   0.0370 278.1985 0001621   4.8809 273.9030  1.00271480 52000"}}, "geometry": {"type": "Point", "coordinates": [13.077503125598135, 0.04138263019724098]}}, {"type": "Feature", "properties": {"norad_id": 38098, "name": "INTELSAT 22 (IS-22)", "group": "intelsat", "lat": -0.00891193006760776, "lon": -94.83879804552848, "alt_km": 35779.2665618936, "timestamp": "2025-12-19T06:59:43.571696+00:00", "meta": {"OBJECT_NAME": "INTELSAT 22 (IS-22)", "OBJECT_ID": "2012-011A", "EPOCH": "2025-12-18T22:12:38.740896", "MEAN_MOTION": 1.00270314, "ECCENTRICITY": 0.00018291, "INCLINATION": 0.0167, "RA_OF_ASC_NODE": 97.763, "ARG_OF_PERICENTER": 188.6369, "MEAN_ANOMALY": 206.6508, "EPHEMERIS_TYPE": 0, "CLASSIFICATION_TYPE": "U", "NORAD_CAT_ID": 38098, "ELEMENT_SET_NO": 999, "REV_AT_EPOCH": 538, "BSTAR": 0, "MEAN_MOTION_DOT": -3.4e-07, "MEAN_MOTION_DDOT": 0}, "tle": {"line1": "1 38098U 12011A   25352.92544839 -.00000034  00000+0  00000+0 0  9990", "line2": "2 38098   0.0167  97.7630 0001829 188.6369 206.6508  1.00270314  5388"}}, "geometry": {"type": "Point", "coordinates": [-94.83879804552848, -0.00891193006760776]}}, {"type": "Feature", "properties": {"norad_id": 38356, "name": "INTELSAT 19 (IS-19)", "group": "intelsat", "lat": 0.009087118552437089, "lon": -0.9067332417563317, "alt_km": 35787.3954340808, "timestamp": "2025-12-19T06:59:43.571708+00:00", "meta": {"OBJECT_NAME": "INTELSAT 19 (IS-19)", "OBJECT_ID": "2012-030A", "EPOCH": "2025-12-18T19:13:18.254208", "MEAN_MOTION": 1.00270631, "ECCENTRICITY": 0.00027018, "INCLINATION": 0.011, "RA_OF_ASC_NODE": 341.8407, "ARG_OF_PERICENTER": 282.2225, "MEAN_ANOMALY": 277.9231, "EPHEMERIS_TYPE": 0, "CLASSIFICATION_TYPE": "U", "NORAD_CAT_ID": 38356, "ELEMENT_SET_NO": 999, "REV_AT_EPOCH": 4864, "BSTAR": 0, "MEAN_MOTION_DOT": -3.2e-07, "MEAN_MOTION_DDOT": 0}, "tle": {"line1": "1 38356U 12030A   25352.80090572 -.00000032  00000+0  00000+0 0  9993", "line2": "2 38356   0.0110 341.8407 0002701 282.2225 277.9231  1.00270631 48642"}}, "geometry": {"type": "Point", "coordinates": [-0.9067332417563317, 0.009087118552437089]}}, {"type": "Feature", "properties": {"norad_id": 38740, "name": "INTELSAT 20 (IS-20)", "group": "intelsat", "lat": -0.02317068926147472, "lon": -98.39783429353604, "alt_km": 35780.582750211586, "timestamp": "2025-12-19T06:59:43.571720+00:00", "meta": {"OBJECT_NAME": "INTELSAT 20 (IS-20)", "OBJECT_ID": "2012-043A", "EPOCH": "2025-12-18T22:12:38.740896", "MEAN_MOTION": 1.00276857, "ECCENTRICITY": 0.0003412, "INCLINATION": 0.0033, "RA_OF_ASC_NODE": 32.0531, "ARG_OF_PERICENTER": 155.8917, "MEAN_ANOMALY": 301.4934, "EPHEMERIS_TYPE": 0, "CLASSIFICATION_TYPE": "U", "NORAD_CAT_ID": 38740, "ELEMENT_SET_NO": 999, "REV_AT_EPOCH": 4894, "BSTAR": 0, "MEAN_MOTION_DOT": -1e-08, "MEAN_MOTION_DDOT": 0}, "tle": {"line1": "1 38740U 12043A   25352.92544839 -.00000001  00000+0  00000+0 0  9993", "line2": "2 38740   0.0033  32.0531 0003412 155.8917 301.4934  1.00276857 48945"}}, "geometry": {"type": "Point", "coordinates": [-98.39783429353604, -0.02317068926147472]}}, {"type": "Feature", "properties": {"norad_id": 38749, "name": "INTELSAT 21 (IS-21)", "group": "intelsat", "lat": -0.002967519402359758, "lon": 135.02945615867787, "alt_km": 35790.957248650826, "timestamp": "2025-12-19T06:59:43.571731+00:00", "meta": {"OBJECT_NAME": "INTELSAT 21 (IS-21)", "OBJECT_ID": "2012-045A", "EPOCH": "2025-12-18T19:52:01.854336", "MEAN_MOTION": 1.0026854, "ECCENTRICITY": 0.00018245, "INCLINATION": 0.0296, "RA_OF_ASC_NODE": 285.082, "ARG_OF_PERICENTER": 330.2374, "MEAN_ANOMALY": 72.3639, "EPHEMERIS_TYPE": 0, "CLASSIFICATION_TYPE": "U", "NORAD_CAT_ID": 38749, "ELEMENT_SET_NO": 999, "REV_AT_EPOCH": 4871, "BSTAR": 0, "MEAN_MOTION_DOT": -2.6e-06, "MEAN_MOTION_DDOT": 0}, "tle": {"line1": "1 38749U 12045A   25352.82779924 -.00000260  00000+0  00000+0 0  9995", "line2": "2 38749   0.0296 285.0820 0001824 330.2374  72.3639  1.00268540 48718"}}, "geometry": {"type": "Point", "coordinates": [135.02945615867787, -0.002967519402359758]}}, {"type": "Feature", "properties": {"norad_id": 38867, "name": "INTELSAT 23 (IS-23)", "group": "intelsat", "lat": 0.030637156296719602, "lon": 140.09699598378802, "alt_km": 35788.538151211964, "timestamp": "2025-12-19T06:59:43.571743+00:00", "meta": {"OBJECT_NAME": "INTELSAT 23 (IS-23)", "OBJECT_ID": "2012-057A", "EPOCH": "2025-12-18T19:53:31.711200", "MEAN_MOTION": 1.00270788, "ECCENTRICITY": 5.755e-05, "INCLINATION": 0.0166, "RA_OF_ASC_NODE": 33.3126, "ARG_OF_PERICENTER": 257.9968, "MEAN_ANOMALY": 41.7981, "EPHEMERIS_TYPE": 0, "CLASSIFICATION_TYPE": "U", "NORAD_CAT_ID": 38867, "ELEMENT_SET_NO": 999, "REV_AT_EPOCH": 4814, "BSTAR": 0, "MEAN_MOTION_DOT": -2.6e-06, "MEAN_MOTION_DDOT": 0}, "tle": {"line1": "1 38867U 12057A   25352.82883925 -.00000260  00000+0  00000+0 0  9996", "line2": "2 38867   0.0166  33.3126 0000575 257.9968  41.7981  1.00270788 48148"}}, "geometry": {"type": "Point", "coordinates": [140.09699598378802, 0.030637156296719602]}}, {"type": "Feature", "properties": {"norad_id": 39360, "name": "FM-6", "group": "intelsat", "lat": 0.01652015623260131, "lon": 76.87682691464695, "alt_km": 35788.28476587117, "timestamp": "2025-12-19T06:59:43.571755+00:00", "meta": {"OBJECT_NAME": "FM-6", "OBJECT_ID": "2013-058A", "EPOCH": "2025-12-18T14:27:20.008224", "MEAN_MOTION": 1.00273107, "ECCENTRICITY": 0.00028667, "INCLINATION": 0.0123, "RA_OF_ASC_NODE": 67.2703, "ARG_OF_PERICENTER": 112.0416, "MEAN_ANOMALY": 8.8268, "EPHEMERIS_TYPE": 0, "CLASSIFICATION_TYPE": "U", "NORAD_CAT_ID": 39360, "ELEMENT_SET_NO": 999, "REV_AT_EPOCH": 4426, "BSTAR": 0, "MEAN_MOTION_DOT": 8e-08, "MEAN_MOTION_DDOT": 0}, "tle": {"line1": "1 39360U 13058A   25352.60231491  .00000008  00000+0  00000+0 0  9997", "line2": "2 39360   0.0123  67.2703 0002866 112.0416   8.8268  1.00273107 44260"}}, "geometry": {"type": "Point", "coordinates": [76.87682691464695, 0.01652015623260131]}}, {"type": "Feature", "properties": {"norad_id": 40271, "name": "INTELSAT 30 (IS-30)", "group": "intelsat", "lat": 0.03809181279853961, "lon": 98.00962927417926, "alt_km": 35779.58560256553, "timestamp": "2025-12-19T06:59:43.571767+00:00", "meta": {"OBJECT_NAME": "INTELSAT 30 (IS-30)", "OBJECT_ID": "2014-062A", "EPOCH": "2025-12-18T19:41:32.858016", "MEAN_MOTION": 1.00270753, "ECCENTRICITY": 0.00016199, "INCLINATION": 0.0158, "RA_OF_ASC_NODE": 28.0219, "ARG_OF_PERICENTER": 62.3101, "MEAN_ANOMALY": 197.679, "EPHEMERIS_TYPE": 0, "CLASSIFICATION_TYPE": "U", "NORAD_CAT_ID": 40271, "ELEMENT_SET_NO": 999, "REV_AT_EPOCH": 498, "BSTAR": 0, "MEAN_MOTION_DOT": -1.26e-06, "MEAN_MOTION_DDOT": 0}, "tle": {"line1": "1 40271U 14062A   25352.82051919 -.00000126  00000+0  00000+0 0  9997", "line2": "2 40271   0.0158  28.0219 0001619  62.3101 197.6790  1.00270753  4987"}}, "geometry": {"type": "Point", "coordinates": [98.00962927417926, 0.03809181279853961]}}, {"type": "Feature", "properties": {"norad_id": 40333, "name": "DIRECTV 14", "group": "intelsat", "lat": 0.04149248269998258, "lon": 93.84757128818958, "alt_km": 35784.85066399643, "timestamp": "2025-12-19T06:59:43.571778+00:00", "meta": {"OBJECT_NAME": "DIRECTV 14", "OBJECT_ID": "2014-078B", "EPOCH": "2025-12-18T20:48:57.002688", "MEAN_MOTION": 1.00273138, "ECCENTRICITY": 5.178e-05, "INCLINATION": 0.0185, "RA_OF_ASC_NODE": 335.9821, "ARG_OF_PERICENTER": 184.6826, "MEAN_ANOMALY": 140.0852, "EPHEMERIS_TYPE": 0, "CLASSIFICATION_TYPE": "U", "NORAD_CAT_ID": 40333, "ELEMENT_SET_NO": 999, "REV_AT_EPOCH": 4023, "BSTAR": 0, "MEAN_MOTION_DOT": -1.01e-06, "MEAN_MOTION_DDOT": 0}, "tle": {"line1": "1 40333U 14078B   25352.86732642 -.00000101  00000+0  00000+0 0  9999", "line2": "2 40333   0.0185 335.9821 0000517 184.6826 140.0852  1.00273138 40232"}}, "geometry": {"type": "Point", "coordinates": [93.84757128818958, 0.04149248269998258]}}, {"type": "Feature", "properties": {"norad_id": 40663, "name": "DIRECTV 15", "group": "intelsat", "lat": 0.039007995260576904, "lon": 90.19313385468236, "alt_km": 35785.38724499475, "timestamp": "2025-12-19T06:59:43.571790+00:00", "meta": {"OBJECT_NAME": "DIRECTV 15", "OBJECT_ID": "2015-026A", "EPOCH": "2025-12-18T23:04:43.398624", "MEAN_MOTION": 1.00271565, "ECCENTRICITY": 1.983e-05, "INCLINATION": 0.0143, "RA_OF_ASC_NODE": 337.2371, "ARG_OF_PERICENTER": 138.4483, "MEAN_ANOMALY": 215.4442, "EPHEMERIS_TYPE": 0, "CLASSIFICATION_TYPE": "U", "NORAD_CAT_ID": 40663, "ELEMENT_SET_NO": 999, "REV_AT_EPOCH": 3865, "BSTAR": 0, "MEAN_MOTION_DOT": -7.8e-07, "MEAN_MOTION_DDOT": 0}, "tle": {"line1": "1 40663U 15026A   25352.96161341 -.00000078  00000+0  00000+0 0  9995", "line2": "2 40663   0.0143 337.2371 0000198 138.4483 215.4442  1.00271565 38655"}}, "geometry": {"type": "Point", "coordinates": [90.19313385468236, 0.039007995260576904]}}]}